{"type": "FeatureCollection", "features": [ {"type": "Feature", "properties": {"norad_id": 41836, "name": "HIMAWARI-9", "group": "weather", "lat": -0.006469332570221268, "lon": 6.537109096340388, "alt_km": 35780.5156908889, "timestamp": "2025-12-22T08:58:19.986836+00:00", "meta": {"OBJECT_NAME": "HIMAWARI-9", "OBJECT_ID": "2016-064A", "EPOCH": "2025-12-21T22:25:41.083392", "MEAN_MOTION": 1.00273007, "ECCENTRICITY": 0.0001509, "INCLINATION": 0.0167, "RA_OF_ASC_NODE": 21.999, "ARG_OF_PERICENTER": 310.9837, "MEAN_ANOMALY": 234.9553, "EPHEMERIS_TYPE": 0, "CLASSIFICATION_TYPE": "U", "NORAD_CAT_ID": 41836, "ELEMENT_SET_NO": 999, "REV_AT_EPOCH": 3343, "BSTAR": 0, "MEAN_MOTION_DOT": 0, "MEAN_MOTION_DDOT": 0}, "tle": {"line1": "1 41836U 16064A   25355.93450328  .00000000  00000+0  00000+0 0  9991", "line2": "2 41836   0.0167  21.9990 0001509 310.9837 234.9553  1.00273007 33438"}}, "geometry": {"type": "Point", "coordinates": [6.537109096340388, -0.006469332570221268]}}, {"type": "Feature", "properties": {"norad_id": 41866, "name": "GOES 16", "group": "weather", "lat": 0.0426470570389204, "lon": 121.0583704491311, "alt_km": 35796.895105960684, "timestamp": "2025-12-22T08:58:19.986848+00:00", "meta": {"OBJECT_NAME": "GOES 16", "OBJECT_ID": "2016-071A", "EPOCH": "2025-12-21T16:07:23.443968", "MEAN_MOTION": 1.0026909, "ECCENTRICITY": 0.0003023, "INCLINATION": 0.0703, "RA_OF_ASC_NODE": 104.1031, "ARG_OF_PERICENTER": 158.6083, "MEAN_ANOMALY": 324.955, "EPHEMERIS_TYPE": 0, "CLASSIFICATION_TYPE": "U", "NORAD_CAT_ID": 41866, "ELEMENT_SET_NO": 999, "REV_AT_EPOCH": 3332, "BSTAR": 0, "MEAN_MOTION_DOT": -6.8e-07, "MEAN_MOTION_DDOT": 0}, "tle": {"line1": "1 41866U 16071A   25355.67179912 -.00000068  00000+0  00000+0 0  9995", "line2": "2 41866   0.0703 104.1031 0003023 158.6083 324.9550  1.00269090 33322"}}, "geometry": {"type": "Point", "coordinates": [121.0583704491311, 0.0426470570389204]}}, {"type": "Feature", "properties": {"norad_id": 41882, "name": "FENGYUN 4A", "group": "weather", "lat": -1.879208693426, "lon": -10.511791110472926, "alt_km": 35798.80719066461, "timestamp": "2025-12-22T08:58:19.986862+00:00", "meta": {"OBJECT_NAME": "FENGYUN 4A", "OBJECT_ID": "2016-077A", "EPOCH": "2025-12-19T13:51:06.687072", "MEAN_MOTION": 1.00266581, "ECCENTRICITY": 0.0004506, "INCLINATION": 1.866, "RA_OF_ASC_NODE": 82.3247, "ARG_OF_PERICENTER": 142.8816, "MEAN_ANOMALY": 194.7423, "EPHEMERIS_TYPE": 0, "CLASSIFICATION_TYPE": "U", "NORAD_CAT_ID": 41882, "ELEMENT_SET_NO": 999, "REV_AT_EPOCH": 3312, "BSTAR": 0, "MEAN_MOTION_DOT": -3.34e-06, "MEAN_MOTION_DDOT": 0}, "tle": {"line1": "1 41882U 16077A   25353.57716073 -.00000334  00000+0  00000+0 0  9997", "line2": "2 41882   1.8660  82.3247 0004506 142.8816 194.7423  1.00266581 33125"}}, "geometry": {"type": "Point", "coordinates": [-10.511791110472926, -1.879208693426]}}, {"type": "Feature", "properties": {"norad_id": 41884, "name": "CYGFM05", "group": "weather", "lat": 23.821836575077743, "lon": 124.99156526770408, "alt_km": 422.91119253686793, "timestamp": "2025-12-22T08:58:19.986873+00:00", "meta": {"OBJECT_NAME": "CYGFM05", "OBJECT_ID": "2016-078A", "EPOCH": "2025-12-22T02:11:58.148736", "MEAN_MOTION": 15.47963245, "ECCENTRICITY": 0.0010822, "INCLINATION": 34.9606, "RA_OF_ASC_NODE": 346.0272, "ARG_OF_PERICENTER": 264.4221, "MEAN_ANOMALY": 95.5267, "EPHEMERIS_TYPE": 0, "CLASSIFICATION_TYPE": "U", "NORAD_CAT_ID": 41884, "ELEMENT_SET_NO": 999, "REV_AT_EPOCH": 50121, "BSTAR": 0.00036929, "MEAN_MOTION_DOT": 0.00019918, "MEAN_MOTION_DDOT": 0}, "tle": {"line1": "1 41884U 16078A   25356.09164524  .00019918  00000+0  36929-3 0  9998", "line2": "2 41884  34.9606 346.0272 0010822 264.4221  95.5267 15.47963245501212"}}, "geometry": {"type": "Point", "coordinates": [124.99156526770408, 23.821836575077743]}}, {"type": "Feature", "properties": {"norad_id": 41885, "name": "CYGFM04", "group": "weather", "lat": 32.470529663758185, "lon": 72.94804616525967, "alt_km": 415.0018241890539, "timestamp": "2025-12-22T08:58:19.986884+00:00", "meta": {"OBJECT_NAME": "CYGFM04", "OBJECT_ID": "2016-078B", "EPOCH": "2025-12-22T02:19:07.413312", "MEAN_MOTION": 15.50734314, "ECCENTRICITY": 0.0009604, "INCLINATION": 34.9356, "RA_OF_ASC_NODE": 320.4992, "ARG_OF_PERICENTER": 289.1008, "MEAN_ANOMALY": 70.8674, "EPHEMERIS_TYPE": 0, "CLASSIFICATION_TYPE": "U", "NORAD_CAT_ID": 41885, "ELEMENT_SET_NO": 999, "REV_AT_EPOCH": 50139, "BSTAR": 0.00038809, "MEAN_MOTION_DOT": 0.00023092, "MEAN_MOTION_DDOT": 0}, "tle": {"line1": "1 41885U 16078B   25356.09661358  .00023092  00000+0  38809-3 0  9993", "line2": "2 41885  34.9356 320.4992 0009604 289.1008  70.8674 15.50734314501397"}}, "geometry": {"type": "Point", "coordinates": [72.94804616525967, 32.470529663758185]}}, {"type": "Feature", "properties": {"norad_id": 41886, "name": "CYGFM02", "group": "weather", "lat": 4.703885272935934, "lon": 130.11178926125206, "alt_km": 412.6274874275214, "timestamp": "2025-12-22T08:58:19.986895+00:00", "meta": {"OBJECT_NAME": "CYGFM02", "OBJECT_ID": "2016-078C", "EPOCH": "2025-12-22T02:03:38.941632", "MEAN_MOTION": 15.52141078, "ECCENTRICITY": 0.0011249, "INCLINATION": 34.9444, "RA_OF_ASC_NODE": 318.7735, "ARG_OF_PERICENTER": 290.1165, "MEAN_ANOMALY": 69.8347, "EPHEMERIS_TYPE": 0, "CLASSIFICATION_TYPE": "U", "NORAD_CAT_ID": 41886, "ELEMENT_SET_NO": 999, "REV_AT_EPOCH": 50152, "BSTAR": 0.00039341, "MEAN_MOTION_DOT": 0.00024646, "MEAN_MOTION_DDOT": 0}, "tle": {"line1": "1 41886U 16078C   25356.08586738  .00024646  00000+0  39341-3 0  9999", "line2": "2 41886  34.9444 318.7735 0011249 290.1165  69.8347 15.52141078501526"}}, "geometry": {"type": "Point", "coordinates": [130.11178926125206, 4.703885272935934]}}, {"type": "Feature", "properties": {"norad_id": 41887, "name": "CYGFM01", "group": "weather", "lat": -11.172258166013465, "lon": -177.10480049553243, "alt_km": 417.6245673960293, "timestamp": "2025-12-22T08:58:19.986905+00:00", "meta": {"OBJECT_NAME": "CYGFM01", "OBJECT_ID": "2016-078D", "EPOCH": "2025-12-21T16:38:27.578400", "MEAN_MOTION": 15.48536528, "ECCENTRICITY": 0.0010513, "INCLINATION": 34.9438, "RA_OF_ASC_NODE": 350.9164, "ARG_OF_PERICENTER": 253.8093, "MEAN_ANOMALY": 106.1471, "EPHEMERIS_TYPE": 0, "CLASSIFICATION_TYPE": "U", "NORAD_CAT_ID": 41887, "ELEMENT_SET_NO": 999, "REV_AT_EPOCH": 50109, "BSTAR": 0.00035104, "MEAN_MOTION_DOT": 0.00019313, "MEAN_MOTION_DDOT": 0}, "tle": {"line1": "1 41887U 16078D   25355.69337475  .00019313  00000+0  35104-3 0  9996", "line2": "2 41887  34.9438 350.9164 0010513 253.8093 106.1471 15.48536528501091"}}, "geometry": {"type": "Point", "coordinates": [-177.10480049553243, -11.172258166013465]}}, {"type": "Feature", "properties": {"norad_id": 41888, "name": "CYGFM08", "group": "weather", "lat": -32.40828236739888, "lon": -96.03409932203739, "alt_km": 411.2909693201218, "timestamp": "2025-12-22T08:58:19.986917+00:00", "meta": {"OBJECT_NAME": "CYGFM08", "OBJECT_ID": "2016-078E", "EPOCH": "2025-12-22T03:05:09.720672", "MEAN_MOTION": 15.4978379, "ECCENTRICITY": 0.0011902, "INCLINATION": 34.9467, "RA_OF_ASC_NODE": 330.9501, "ARG_OF_PERICENTER": 280.1203, "MEAN_ANOMALY": 79.8177, "EPHEMERIS_TYPE": 0, "CLASSIFICATION_TYPE": "U", "NORAD_CAT_ID": 41888, "ELEMENT_SET_NO": 999, "REV_AT_EPOCH": 50139, "BSTAR": 0.00038889, "MEAN_MOTION_DOT": 0.00022389, "MEAN_MOTION_DDOT": 0}, "tle": {"line1": "1 41888U 16078E   25356.12858473  .00022389  00000+0  38889-3 0  9992", "line2": "2 41888  34.9467 330.9501 0011902 280.1203  79.8177 15.49783790501394"}}, "geometry": {"type": "Point", "coordinates": [-96.03409932203739, -32.40828236739888]}}, {"type": "Feature", "properties": {"norad_id": 41890, "name": "CYGFM07", "group": "weather", "lat": -30.14361167191477, "lon": -97.98427162288125, "alt_km": 410.7204622480567, "timestamp": "2025-12-22T08:58:19.986927+00:00", "meta": {"OBJECT_NAME": "CYGFM07", "OBJECT_ID": "2016-078G", "EPOCH": "2025-12-22T04:35:55.929984", "MEAN_MOTION": 15.50379342, "ECCENTRICITY": 0.0009869, "INCLINATION": 34.9485, "RA_OF_ASC_NODE": 319.4647, "ARG_OF_PERICENTER": 295.5396, "MEAN_ANOMALY": 64.4305, "EPHEMERIS_TYPE": 0, "CLASSIFICATION_TYPE": "U", "NORAD_CAT_ID": 41890, "ELEMENT_SET_NO": 999, "REV_AT_EPOCH": 50142, "BSTAR": 0.00039701, "MEAN_MOTION_DOT": 0.00023328, "MEAN_MOTION_DDOT": 0}, "tle": {"line1": "1 41890U 16078G   25356.19161956  .00023328  00000+0  39701-3 0  9993", "line2": "2 41890  34.9485 319.4647 0009869 295.5396  64.4305 15.50379342501425"}}, "geometry": {"type": "Point", "coordinates": [-97.98427162288125, -30.14361167191477]}}, {"type": "Feature", "properties": {"norad_id": 41891, "name": "CYGFM03", "group": "weather", "lat": 26.052554171687387, "lon": 95.75569583286722, "alt_km": 416.7945814765317, "timestamp": "2025-12-22T08:58:19.986938+00:00", "meta": {"OBJECT_NAME": "CYGFM03", "OBJECT_ID": "2016-078H", "EPOCH": "2025-12-22T02:13:56.611776", "MEAN_MOTION": 15.50269642, "ECCENTRICITY": 0.0009609, "INCLINATION": 34.9438, "RA_OF_ASC_NODE": 322.0357, "ARG_OF_PERICENTER": 282.2271, "MEAN_ANOMALY": 77.7375, "EPHEMERIS_TYPE": 0, "CLASSIFICATION_TYPE": "U", "NORAD_CAT_ID": 41891, "ELEMENT_SET_NO": 999, "REV_AT_EPOCH": 50138, "BSTAR": 0.00038679, "MEAN_MOTION_DOT": 0.00022633, "MEAN_MOTION_DDOT": 0}, "tle": {"line1": "1 41891U 16078H   25356.09301634  .00022633  00000+0  38679-3 0  9993", "line2": "2 41891  34.9438 322.0357 0009609 282.2271  77.7375 15.50269642501389"}}, "geometry": {"type": "Point", "coordinates": [95.75569583286722, 26.052554171687387]}}]}